[{"OBJECT_NAME":"HAWK-A","OBJECT_ID":"2018-099H","EPOCH":"2026-03-09T16:13:51.062880","MEAN_MOTION":15.23231043,"ECCENTRICITY":0.00342596,"INCLINATION":97.4051,"RA_OF_ASC_NODE":122.2425,"ARG_OF_PERICENTER":275.5523,"MEAN_ANOMALY":84.1807,"EPHEMERIS_TYPE":0,"CLASSIFICATION_TYPE":"U","NORAD_CAT_ID":43765,"ELEMENT_SET_NO":999,"REV_AT_EPOCH":39794,"BSTAR":0.00036104215,"MEAN_MOTION_DOT":8.617e-5,"MEAN_MOTION_DDOT":0},{"OBJECT_NAME":"STARLINK-33706","OBJECT_ID":"2025-070B","EPOCH":"2026-03-09T13:34:40.616832","MEAN_MOTION":15.27573082,"ECCENTRICITY":0.000198,"INCLINATION":42.999,"RA_OF_ASC_NODE":260.8327,"ARG_OF_PERICENTER":301.9874,"MEAN_ANOMALY":58.0785,"EPHEMERIS_TYPE":0,"CLASSIFICATION_TYPE":"U","NORAD_CAT_ID":63461,"ELEMENT_SET_NO":999,"REV_AT_EPOCH":5295,"BSTAR":0.0012348136,"MEAN_MOTION_DOT":0.00033867,"MEAN_MOTION_DDOT":0}]
